H1 CPF  1  DLR 2022 06 06 10  6572 technosat            
H2  1704205 6203    42829 2022 06 06 00 00 00 2022 06 13 00 00 00    60 1 1  0 0 0
H9
10 0 59741  36000.000000  0      -5808801.041       3834048.125       -563190.749
10 0 59741  36060.000000  0      -5717737.708       3880451.149      -1009583.361
10 0 59741  36120.000000  0      -5602341.029       3909661.064      -1451706.959
10 0 59741  36180.000000  0      -5463257.887       3921352.431      -1887694.640
10 0 59741  36240.000000  0      -5301237.071       3915279.856      -2315707.300
10 0 59741  36300.000000  0      -5117125.169       3891279.740      -2733941.411
10 0 59741  36360.000000  0      -4911862.021       3849271.635      -3140636.661
10 0 59741  36420.000000  0      -4686475.717       3789259.128      -3534083.338
10 0 59741  36480.000000  0      -4442077.265       3711330.351      -3912629.346
10 0 59741  36540.000000  0      -4179855.007       3615658.129      -4274686.976
10 0 59741  36600.000000  0      -3901068.691       3502499.719      -4618739.412
10 0 59741  36660.000000  0      -3607043.214       3372196.112      -4943346.807
10 0 59741  36720.000000  0      -3299162.288       3225170.968      -5247151.927
10 0 59741  36780.000000  0      -2978861.951       3061929.238      -5528885.547
10 0 59741  36840.000000  0      -2647623.841       2883055.399      -5787371.491
10 0 59741  36900.000000  0      -2306968.320       2689211.312      -6021531.250
10 0 59741  36960.000000  0      -1958447.486       2481133.696      -6230388.151
10 0 59741  37020.000000  0      -1603638.155       2259631.256      -6413071.062
10 0 59741  37080.000000  0      -1244134.871       2025581.561      -6568817.641
10 0 59741  37140.000000  0       -881542.937       1779927.644      -6696977.284
10 0 59741  37200.000000  0       -517471.366       1523674.226      -6797013.638
10 0 59741  37260.000000  0       -153525.957       1257883.676      -6868506.542
10 0 59741  37320.000000  0        208697.475        983671.785      -6911153.695
10 0 59741  37380.000000  0        567619.910        702203.258      -6924771.991
10 0 59741  37440.000000  0        921685.909        414686.898      -6909298.335
10 0 59741  37500.000000  0       1269370.213        122370.547      -6864789.925
10 0 59741  37560.000000  0       1609184.132       -173464.158      -6791424.091
10 0 59741  37620.000000  0       1939681.728       -471507.188      -6689497.745
10 0 59741  37680.000000  0       2259465.858       -770425.727      -6559426.495
10 0 59741  37740.000000  0       2567194.087      -1068870.005      -6401743.235
10 0 59741  37800.000000  0       2861584.283      -1365479.205      -6217096.201
10 0 59741  37860.000000  0       3141419.923      -1658887.460      -6006246.716
10 0 59741  37920.000000  0       3405555.230      -1947730.040      -5770066.570
10 0 59741  37980.000000  0       3652920.094      -2230649.695      -5509534.850
10 0 59741  38040.000000  0       3882524.616      -2506303.038      -5225734.221
10 0 59741  38100.000000  0       4093463.249      -2773366.957      -4919846.783
10 0 59741  38160.000000  0       4284918.579      -3030544.995      -4593149.474
10 0 59741  38220.000000  0       4456164.717      -3276573.677      -4247009.105
10 0 59741  38280.000000  0       4606570.356      -3510228.790      -3882876.979
10 0 59741  38340.000000  0       4735601.422      -3730331.595      -3502283.077
10 0 59741  38400.000000  0       4842823.287      -3935754.925      -3106829.835
10 0 59741  38460.000000  0       4927902.513      -4125429.124      -2698185.483
10 0 59741  38520.000000  0       4990608.074      -4298347.706      -2278077.055
10 0 59741  38580.000000  0       5030812.162      -4453572.826      -1848283.136
10 0 59741  38640.000000  0       5048490.480      -4590240.530      -1410626.222
10 0 59741  38700.000000  0       5043721.962      -4707565.629       -966964.824
10 0 59741  38760.000000  0       5016688.004      -4804846.238       -519185.376
10 0 59741  38820.000000  0       4967671.147      -4881467.936        -69193.935
10 0 59741  38880.000000  0       4897053.264      -4936907.472        381092.217
10 0 59741  38940.000000  0       4805313.310      -4970736.052        829753.083
10 0 59741  39000.000000  0       4693024.512      -4982622.150       1274874.543
10 0 59741  39060.000000  0       4560851.029      -4972333.801       1714556.880
10 0 59741  39120.000000  0       4409544.215      -4939740.426       2146923.184
10 0 59741  39180.000000  0       4239938.500      -4884814.167       2570127.690
10 0 59741  39240.000000  0       4052946.847      -4807630.689       2982363.997
10 0 59741  39300.000000  0       3849555.807      -4708369.451       3381873.071
10 0 59741  39360.000000  0       3630820.219      -4587313.450       3766951.004
10 0 59741  39420.000000  0       3397857.618      -4444848.423       4135956.467
10 0 59741  39480.000000  0       3151842.405      -4281461.547       4487317.859
10 0 59741  39540.000000  0       2893999.767      -4097739.604       4819540.102
10 0 59741  39600.000000  0       2625599.412      -3894366.703       5131211.002
10 0 59741  39660.000000  0       2347949.184      -3672121.566       5421007.266
10 0 59741  39720.000000  0       2062388.503      -3431874.285       5687700.143
10 0 59741  39780.000000  0       1770281.693      -3174582.614       5930160.501
10 0 59741  39840.000000  0       1473011.341      -2901287.901       6147363.401
10 0 59741  39900.000000  0       1171971.649      -2613110.682       6338392.272
10 0 59741  39960.000000  0        868561.776      -2311245.878       6502442.603
10 0 59741  40020.000000  0        564179.223      -1996957.635       6638825.088
10 0 59741  40080.000000  0        260213.383      -1671573.907       6746968.283
10 0 59741  40140.000000  0        -41960.809      -1336480.718       6826420.879
10 0 59741  40200.000000  0       -340989.126       -993116.069       6876853.405
10 0 59741  40260.000000  0       -635544.096       -642963.701       6898059.377
10 0 59741  40320.000000  0       -924330.897       -287546.620       6889956.055
10 0 59741  40380.000000  0      -1206093.062         71579.583       6852584.637
10 0 59741  40440.000000  0      -1479617.928        432833.585       6786109.965
10 0 59741  40500.000000  0      -1743741.824        794615.320       6690819.748
10 0 59741  40560.000000  0      -1997355.029       1155313.064       6567123.300
10 0 59741  40620.000000  0      -2239406.443       1513310.627       6415549.787
10 0 59741  40680.000000  0      -2468907.927       1866994.596       6236745.988
10 0 59741  40740.000000  0      -2684938.347       2214761.612       6031473.636
10 0 59741  40800.000000  0      -2886647.295       2555025.703       5800606.281
10 0 59741  40860.000000  0      -3073258.477       2886225.561       5545125.657
10 0 59741  40920.000000  0      -3244072.768       3206831.746       5266117.597
10 0 59741  40980.000000  0      -3398470.879       3515353.824       4964767.516
10 0 59741  41040.000000  0      -3535915.623       3810347.398       4642355.467
10 0 59741  41100.000000  0      -3655953.798       4090420.989       4300250.767
10 0 59741  41160.000000  0      -3758217.662       4354242.703       3939906.206
10 0 59741  41220.000000  0      -3842425.967       4600546.687       3562851.907
10 0 59741  41280.000000  0      -3908384.620       4828139.358       3170688.802
10 0 59741  41340.000000  0      -3955986.876       5035905.253       2765081.730
10 0 59741  41400.000000  0      -3985213.086       5222812.545       2347752.286
10 0 59741  41460.000000  0      -3996130.009       5387918.204       1920471.420
10 0 59741  41520.000000  0      -3988889.742       5530372.758       1485051.846
10 0 59741  41580.000000  0      -3963728.253       5649424.641       1043340.223
10 0 59741  41640.000000  0      -3920963.521       5744424.132        597209.215
10 0 59741  41700.000000  0      -3860993.287       5814826.855        148549.332
10 0 59741  41760.000000  0      -3784292.330       5860196.718       -300739.345
10 0 59741  41820.000000  0      -3691409.377       5880208.245       -748755.411
10 0 59741  41880.000000  0      -3582963.747       5874648.460      -1193604.349
10 0 59741  41940.000000  0      -3459641.596       5843418.200      -1633406.799
10 0 59741  42000.000000  0      -3322191.770       5786532.779      -2066306.589
10 0 59741  42060.000000  0      -3171421.445       5704122.252      -2490478.566
10 0 59741  42120.000000  0      -3008191.561       5596431.086      -2904136.318
10 0 59741  42180.000000  0      -2833412.088       5463817.289      -3305539.667
10 0 59741  42240.000000  0      -2648037.097       5306751.017      -3693001.930
10 0 59741  42300.000000  0      -2453059.630       5125812.659      -4064896.900
10 0 59741  42360.000000  0      -2249506.434       4921690.422      -4419665.465
10 0 59741  42420.000000  0      -2038432.661       4695177.440      -4755821.858
10 0 59741  42480.000000  0      -1820916.532       4447168.525      -5071959.566
10 0 59741  42540.000000  0      -1598053.951       4178656.489      -5366756.972
10 0 59741  42600.000000  0      -1370953.089       3890728.002      -5638982.616
10 0 59741  42660.000000  0      -1140728.985       3584559.052      -5887500.063
10 0 59741  42720.000000  0       -908498.168       3261410.004      -6111272.340
10 0 59741  42780.000000  0       -675373.357       2922620.304      -6309365.931
10 0 59741  42840.000000  0       -442458.261       2569602.897      -6480954.282
10 0 59741  42900.000000  0       -210842.520       2203838.418      -6625320.938
10 0 59741  42960.000000  0         18403.210       1826869.070      -6741862.305
10 0 59741  43020.000000  0        244232.028       1440292.234      -6830089.985
10 0 59741  43080.000000  0        465625.451       1045753.859      -6889632.659
10 0 59741  43140.000000  0        681597.893        644941.685      -6920237.541
99
